{
    "links": {
        "self": "http://www.neowsapp.com/rest/v1/neo/54097869?api_key=iIulBulltgU6a56xZRHN4H3l9WmuAYTsLGpBGhQ2"
    },
    "id": "54097869",
    "neo_reference_id": "54097869",
    "name": "(2020 XH)",
    "designation": "2020 XH",
    "nasa_jpl_url": "http://ssd.jpl.nasa.gov/sbdb.cgi?sstr=54097869",
    "absolute_magnitude_h": 24.657,
    "estimated_diameter": {
        "kilometers": {
            "estimated_diameter_min": 0.0311282694,
            "estimated_diameter_max": 0.0696049264
        },
        "meters": {
            "estimated_diameter_min": 31.1282694135,
            "estimated_diameter_max": 69.6049264304
        },
        "miles": {
            "estimated_diameter_min": 0.0193422039,
            "estimated_diameter_max": 0.0432504827
        },
        "feet": {
            "estimated_diameter_min": 102.1268714224,
            "estimated_diameter_max": 228.3626268299
        }
    },
    "is_potentially_hazardous_asteroid": false,
    "close_approach_data": [
        {
            "close_approach_date": "2020-12-04",
            "close_approach_date_full": "2020-Dec-04 06:32",
            "epoch_date_close_approach": 1607063520000,
            "relative_velocity": {
                "kilometers_per_second": "8.7444798708",
                "kilometers_per_hour": "31480.1275349934",
                "miles_per_hour": "19560.527023063"
            },
            "miss_distance": {
                "astronomical": "0.0148524332",
                "lunar": "5.7775965148",
                "kilometers": "2221892.371037284",
                "miles": "1380619.8991671592"
            },
            "orbiting_body": "Earth"
        },
        {
            "close_approach_date": "2093-01-18",
            "close_approach_date_full": "2093-Jan-18 02:51",
            "epoch_date_close_approach": 3883085460000,
            "relative_velocity": {
                "kilometers_per_second": "22.7089407524",
                "kilometers_per_hour": "81752.1867085007",
                "miles_per_hour": "50797.629568957"
            },
            "miss_distance": {
                "astronomical": "0.4922029455",
                "lunar": "191.4669457995",
                "kilometers": "73632512.254526085",
                "miles": "45753121.514526573"
            },
            "orbiting_body": "Earth"
        },
        {
            "close_approach_date": "2095-10-19",
            "close_approach_date_full": "2095-Oct-19 17:56",
            "epoch_date_close_approach": 3969885360000,
            "relative_velocity": {
                "kilometers_per_second": "10.7037020892",
                "kilometers_per_hour": "38533.3275212654",
                "miles_per_hour": "23943.1112034219"
            },
            "miss_distance": {
                "astronomical": "0.1511846384",
                "lunar": "58.8108243376",
                "kilometers": "22616899.881360208",
                "miles": "14053489.9172905504"
            },
            "orbiting_body": "Earth"
        },
        {
            "close_approach_date": "2197-01-14",
            "close_approach_date_full": "2197-Jan-14 19:46",
            "epoch_date_close_approach": 7164704760000,
            "relative_velocity": {
                "kilometers_per_second": "19.6468518588",
                "kilometers_per_hour": "70728.666691563",
                "miles_per_hour": "43948.042922877"
            },
            "miss_distance": {
                "astronomical": "0.3871816009",
                "lunar": "150.6136427501",
                "kilometers": "57921542.797830083",
                "miles": "35990777.7800298254"
            },
            "orbiting_body": "Earth"
        },
        {
            "close_approach_date": "2199-10-13",
            "close_approach_date_full": "2199-Oct-13 13:28",
            "epoch_date_close_approach": 7251254880000,
            "relative_velocity": {
                "kilometers_per_second": "12.7435808997",
                "kilometers_per_hour": "45876.8912390795",
                "miles_per_hour": "28506.116114638"
            },
            "miss_distance": {
                "astronomical": "0.2078929304",
                "lunar": "80.8703499256",
                "kilometers": "31100339.575898248",
                "miles": "19324854.9070339024"
            },
            "orbiting_body": "Earth"
        }
    ],
    "orbital_data": {
        "orbit_id": "4",
        "orbit_determination_date": "2020-12-08 05:24:05",
        "first_observation_date": "2020-12-04",
        "last_observation_date": "2020-12-08",
        "data_arc_in_days": 4,
        "observations_used": 85,
        "orbit_uncertainty": "7",
        "minimum_orbit_intersection": ".0152864",
        "jupiter_tisserand_invariant": "3.627",
        "epoch_osculation": "2459000.5",
        "eccentricity": ".5139354528285156",
        "semi_major_axis": "2.026115320963635",
        "inclination": "8.45432112090529",
        "ascending_node_longitude": "75.82582031315495",
        "orbital_period": "1053.403283530753",
        "perihelion_distance": ".984822826001396",
        "perihelion_argument": "340.7041437992028",
        "aphelion_distance": "3.067407815925874",
        "perihelion_time": "2459174.971032784178",
        "mean_anomaly": "300.3746193083985",
        "mean_motion": ".341749456858884",
        "equinox": "J2000",
        "orbit_class": {
            "orbit_class_type": "APO",
            "orbit_class_description": "Near-Earth asteroid orbits which cross the Earth’s orbit similar to that of 1862 Apollo",
            "orbit_class_range": "a (semi-major axis) > 1.0 AU; q (perihelion) < 1.017 AU"
        }
    },
    "is_sentry_object": false
}